[{"OBJECT_NAME":"STARLINK-32699","OBJECT_ID":"2024-254W","EPOCH":"2026-03-09T03:38:47.494176","MEAN_MOTION":15.27591918,"ECCENTRICITY":0.00015311,"INCLINATION":43.0016,"RA_OF_ASC_NODE":22.6216,"ARG_OF_PERICENTER":250.0738,"MEAN_ANOMALY":109.9949,"EPHEMERIS_TYPE":0,"CLASSIFICATION_TYPE":"U","NORAD_CAT_ID":62482,"ELEMENT_SET_NO":999,"REV_AT_EPOCH":6738,"BSTAR":0.0013886226,"MEAN_MOTION_DOT":0.00038162,"MEAN_MOTION_DDOT":0},{"OBJECT_NAME":"CZ-2D R\/B","OBJECT_ID":"2025-227B","EPOCH":"2026-03-09T22:11:26.043072","MEAN_MOTION":15.30393637,"ECCENTRICITY":0.00198129,"INCLINATION":80.1514,"RA_OF_ASC_NODE":267.3771,"ARG_OF_PERICENTER":270.3655,"MEAN_ANOMALY":89.5307,"EPHEMERIS_TYPE":0,"CLASSIFICATION_TYPE":"U","NORAD_CAT_ID":65946,"ELEMENT_SET_NO":999,"REV_AT_EPOCH":2254,"BSTAR":0.00032251975,"MEAN_MOTION_DOT":9.557e-5,"MEAN_MOTION_DDOT":0}]
